{
  "type": "FeatureCollection",
  "features": [
    {
      "type": "Feature",
      "properties": {
        "norad_id": 34022,
        "name": "COSMOS 2251 DEB",
        "group": "cosmos-2251-debris",
        "lat": -69.58853753859474,
        "lon": 122.63713843429613,
        "alt_km": 760.2314498523474,
        "timestamp": "2025-12-22T16:55:17.858270+00:00",
        "meta_object_name": "COSMOS 2251 DEB",
        "meta_object_id": "1993-036HH",
        "meta_epoch": "2025-12-22T01:14:00.769056",
        "meta_mean_motion": 14.38976268,
        "meta_eccentricity": 0.00230028,
        "meta_inclination": 74.054,
        "meta_ra_of_asc_node": 253.6378,
        "meta_arg_of_pericenter": 317.0867,
        "meta_mean_anomaly": 155.3613,
        "meta_ephemeris_type": 0,
        "meta_classification_type": "U",
        "meta_norad_cat_id": 34022,
        "meta_element_set_no": 999,
        "meta_rev_at_epoch": 88329,
        "meta_bstar": 0.00019127637,
        "meta_mean_motion_dot": 5.65e-06,
        "meta_mean_motion_ddot": 0,
        "tle_line1": "1 34022U 93036HH  25356.05139779  .00000565  00000+0  19128-3 0  9993",
        "tle_line2": "2 34022  74.0540 253.6378 0023002 317.0867 155.3613 14.38976268883294"
      },
      "geometry": {
        "type": "Point",
        "coordinates": [
          122.63713843429613,
          -69.58853753859474
        ]
      }
    },
    {
      "type": "Feature",
      "properties": {
        "norad_id": 34023,
        "name": "COSMOS 2251 DEB",
        "group": "cosmos-2251-debris",
        "lat": -51.03758779821265,
        "lon": 74.04847204985575,
        "alt_km": 763.9626133668053,
        "timestamp": "2025-12-22T16:55:17.858280+00:00",
        "meta_object_name": "COSMOS 2251 DEB",
        "meta_object_id": "1993-036HJ",
        "meta_epoch": "2025-12-22T03:12:54.768672",
        "meta_mean_motion": 14.40578955,
        "meta_eccentricity": 0.00188152,
        "meta_inclination": 74.0242,
        "meta_ra_of_asc_node": 234.3581,
        "meta_arg_of_pericenter": 328.6587,
        "meta_mean_anomaly": 184.8839,
        "meta_ephemeris_type": 0,
        "meta_classification_type": "U",
        "meta_norad_cat_id": 34023,
        "meta_element_set_no": 999,
        "meta_rev_at_epoch": 88349,
        "meta_bstar": 0.00024945527,
        "meta_mean_motion_dot": 7.7e-06,
        "meta_mean_motion_ddot": 0,
        "tle_line1": "1 34023U 93036HJ  25356.13396723  .00000770  00000+0  24946-3 0  9999",
        "tle_line2": "2 34023  74.0242 234.3581 0018815 328.6587 184.8839 14.40578955883492"
      },
      "geometry": {
        "type": "Point",
        "coordinates": [
          74.04847204985575,
          -51.03758779821265
        ]
      }
    },
    {
      "type": "Feature",
      "properties": {
        "norad_id": 34024,
        "name": "COSMOS 2251 DEB",
        "group": "cosmos-2251-debris",
        "lat": 55.00854045299919,
        "lon": -38.151699296387356,
        "alt_km": 763.4158136191681,
        "timestamp": "2025-12-22T16:55:17.858291+00:00",
        "meta_object_name": "COSMOS 2251 DEB",
        "meta_object_id": "1993-036HK",
        "meta_epoch": "2025-12-22T03:20:22.167744",
        "meta_mean_motion": 14.35406068,
        "meta_eccentricity": 0.00214493,
        "meta_inclination": 74.0468,
        "meta_ra_of_asc_node": 298.7653,
        "meta_arg_of_pericenter": 347.4676,
        "meta_mean_anomaly": 27.5876,
        "meta_ephemeris_type": 0,
        "meta_classification_type": "U",
        "meta_norad_cat_id": 34024,
        "meta_element_set_no": 999,
        "meta_rev_at_epoch": 88159,
        "meta_bstar": 0.00016495955,
        "meta_mean_motion_dot": 4.49e-06,
        "meta_mean_motion_ddot": 0,
        "tle_line1": "1 34024U 93036HK  25356.13914546  .00000449  00000+0  16496-3 0  9993",
        "tle_line2": "2 34024  74.0468 298.7653 0021449 347.4676  27.5876 14.35406068881594"
      },
      "geometry": {
        "type": "Point",
        "coordinates": [
          -38.151699296387356,
          55.00854045299919
        ]
      }
    },
    {
      "type": "Feature",
      "properties": {
        "norad_id": 34026,
        "name": "COSMOS 2251 DEB",
        "group": "cosmos-2251-debris",
        "lat": -41.6184822927331,
        "lon": -54.28614807420199,
        "alt_km": 1172.7778758110226,
        "timestamp": "2025-12-22T16:55:17.858301+00:00",
        "meta_object_name": "COSMOS 2251 DEB",
        "meta_object_id": "1993-036HM",
        "meta_epoch": "2025-12-22T04:57:25.488864",
        "meta_mean_motion": 13.6532033,
        "meta_eccentricity": 0.0349788,
        "meta_inclination": 73.7668,
        "meta_ra_of_asc_node": 321.5428,
        "meta_arg_of_pericenter": 190.1115,
        "meta_mean_anomaly": 193.5439,
        "meta_ephemeris_type": 0,
        "meta_classification_type": "U",
        "meta_norad_cat_id": 34026,
        "meta_element_set_no": 999,
        "meta_rev_at_epoch": 83661,
        "meta_bstar": 0.00042893271,
        "meta_mean_motion_dot": 5.07e-06,
        "meta_mean_motion_ddot": 0,
        "tle_line1": "1 34026U 93036HM  25356.20654501  .00000507  00000+0  42893-3 0  9990",
        "tle_line2": "2 34026  73.7668 321.5428 0349788 190.1115 193.5439 13.65320330836610"
      },
      "geometry": {
        "type": "Point",
        "coordinates": [
          -54.28614807420199,
          -41.6184822927331
        ]
      }
    },
    {
      "type": "Feature",
      "properties": {
        "norad_id": 34028,
        "name": "COSMOS 2251 DEB",
        "group": "cosmos-2251-debris",
        "lat": 7.006555993031932,
        "lon": 149.9362906973713,
        "alt_km": 989.0129186735512,
        "timestamp": "2025-12-22T16:55:17.858313+00:00",
        "meta_object_name": "COSMOS 2251 DEB",
        "meta_object_id": "1993-036HP",
        "meta_epoch": "2025-12-21T22:04:55.758720",
        "meta_mean_motion": 13.20630333,
        "meta_eccentricity": 0.05435118,
        "meta_inclination": 73.8836,
        "meta_ra_of_asc_node": 333.1756,
        "meta_arg_of_pericenter": 109.4454,
        "meta_mean_anomaly": 286.9669,
        "meta_ephemeris_type": 0,
        "meta_classification_type": "U",
        "meta_norad_cat_id": 34028,
        "meta_element_set_no": 999,
        "meta_rev_at_epoch": 81129,
        "meta_bstar": 0.00047787653,
        "meta_mean_motion_dot": 4.05e-06,
        "meta_mean_motion_ddot": 0,
        "tle_line1": "1 34028U 93036HP  25355.92008980  .00000405  00000+0  47788-3 0  9999",
        "tle_line2": "2 34028  73.8836 333.1756 0543511 109.4454 286.9669 13.20630333811299"
      },
      "geometry": {
        "type": "Point",
        "coordinates": [
          149.9362906973713,
          7.006555993031932
        ]
      }
    },
    {
      "type": "Feature",
      "properties": {
        "norad_id": 34031,
        "name": "COSMOS 2251 DEB",
        "group": "cosmos-2251-debris",
        "lat": 35.94143173166557,
        "lon": 128.67002810181413,
        "alt_km": 706.351851900632,
        "timestamp": "2025-12-22T16:55:17.858324+00:00",
        "meta_object_name": "COSMOS 2251 DEB",
        "meta_object_id": "1993-036HS",
        "meta_epoch": "2025-12-22T03:51:30.541824",
        "meta_mean_motion": 14.59787747,
        "meta_eccentricity": 0.00229061,
        "meta_inclination": 74.0132,
        "meta_ra_of_asc_node": 117.7134,
        "meta_arg_of_pericenter": 237.6447,
        "meta_mean_anomaly": 180.7452,
        "meta_ephemeris_type": 0,
        "meta_classification_type": "U",
        "meta_norad_cat_id": 34031,
        "meta_element_set_no": 999,
        "meta_rev_at_epoch": 88703,
        "meta_bstar": 0.0012732694,
        "meta_mean_motion_dot": 6.08e-05,
        "meta_mean_motion_ddot": 0,
        "tle_line1": "1 34031U 93036HS  25356.16077016  .00006080  00000+0  12733-2 0  9992",
        "tle_line2": "2 34031  74.0132 117.7134 0022906 237.6447 180.7452 14.59787747887038"
      },
      "geometry": {
        "type": "Point",
        "coordinates": [
          128.67002810181413,
          35.94143173166557
        ]
      }
    },
    {
      "type": "Feature",
      "properties": {
        "norad_id": 34035,
        "name": "COSMOS 2251 DEB",
        "group": "cosmos-2251-debris",
        "lat": -69.65626496811082,
        "lon": -80.00284990759972,
        "alt_km": 703.9257147962098,
        "timestamp": "2025-12-22T16:55:17.858334+00:00",
        "meta_object_name": "COSMOS 2251 DEB",
        "meta_object_id": "1993-036HW",
        "meta_epoch": "2025-12-21T16:42:25.187040",
        "meta_mean_motion": 14.52045482,
        "meta_eccentricity": 0.00452344,
        "meta_inclination": 74.0657,
        "meta_ra_of_asc_node": 332.2943,
        "meta_arg_of_pericenter": 332.0725,
        "meta_mean_anomaly": 79.1627,
        "meta_ephemeris_type": 0,
        "meta_classification_type": "U",
        "meta_norad_cat_id": 34035,
        "meta_element_set_no": 999,
        "meta_rev_at_epoch": 88096,
        "meta_bstar": 0.0013599214,
        "meta_mean_motion_dot": 5.549e-05,
        "meta_mean_motion_ddot": 0,
        "tle_line1": "1 34035U 93036HW  25355.69612485  .00005549  00000+0  13599-2 0  9998",
        "tle_line2": "2 34035  74.0657 332.2943 0045234 332.0725  79.1627 14.52045482880960"
      },
      "geometry": {
        "type": "Point",
        "coordinates": [
          -80.00284990759972,
          -69.65626496811082
        ]
      }
    }
  ]
}